     2.100          NAVIGATION                              RINEX VERSION / TYPE
fic2rin                                 10/12/2014 00:19:40 PGM / RUN BY / DATE
                                                            END OF HEADER
20 14 10 11  8  0  0.0  .243883114308D-03  .432009983342D-11  .000000000000D+00
     .510000000000D+02 -.161250000000D+02  .509378360510D-08  .177970794812D+01
    -.894069671631D-06  .607361702714D-02  .108703970909D-04  .515371875000D+04
     .547200000000D+06  .558793544769D-08 -.310298794685D+01 -.191852450371D-06
     .927055189375D+00  .151031250000D+03  .133090473215D+01 -.828748806429D-08
    -.447518640948D-09  .100000000000D+01  .181300000000D+04  .000000000000D+00
     .240000000000D+01  .000000000000D+00 -.791624188423D-08  .510000000000D+02
     .540006000000D+06  .400000000000D+01
22 14 10 11  8  0  0.0  .276010017842D-03  .363797880709D-11  .000000000000D+00
     .180000000000D+02 -.343750000000D+01  .523343227918D-08  .730102272353D+00
    -.171363353729D-06  .733019900508D-02  .109001994133D-04  .515372469330D+04
     .547200000000D+06 -.856816768646D-07 -.304847797490D+01  .298023223877D-07
     .923766062382D+00  .150843750000D+03 -.205547896624D+01 -.839034949173D-08
    -.479305679291D-09  .100000000000D+01  .181300000000D+04  .000000000000D+00
     .240000000000D+01  .000000000000D+00 -.172294676304D-07  .180000000000D+02
     .540006000000D+06  .400000000000D+01
24 14 10 11  8  0  0.0 -.366298481822D-04 -.682121026330D-12  .000000000000D+00
     .630000000000D+02 -.155937500000D+02  .501520890358D-08 -.213364409093D+01
    -.886619091034D-06  .230955274310D-02  .187940895557D-05  .515370332146D+04
     .547200000000D+06  .316649675369D-07 -.954568128771D+00 -.782310962677D-07
     .955440436101D+00  .341281250000D+03  .220150880065D+00 -.857071414750D-08
    -.278583032673D-10  .100000000000D+01  .181300000000D+04  .000000000000D+00
     .240000000000D+01  .000000000000D+00  .279396772385D-08  .630000000000D+02
     .540006000000D+06  .400000000000D+01
25 14 10 11  8  0  0.0  .187843106687D-04 -.136424205266D-11  .000000000000D+00
     .660000000000D+02 -.913125000000D+02  .402373903345D-08  .207988724237D+01
    -.479631125927D-05  .373760762159D-02  .100228935480D-04  .515378739357D+04
     .547200000000D+06 -.106170773506D-06  .103084487346D+00 -.484287738800D-07
     .977489244808D+00  .193375000000D+03  .722975627431D+00 -.775603735580D-08
    -.156792245312D-09  .100000000000D+01  .181300000000D+04  .000000000000D+00
     .240000000000D+01  .000000000000D+00  .558793544769D-08  .660000000000D+02
     .540006000000D+06  .400000000000D+01
26 14 10 11  8  0  0.0 -.845934264362D-04 -.128466126625D-10  .000000000000D+00
     .400000000000D+02  .105468750000D+03  .416088760338D-08 -.152746366193D+01
     .592134892941D-05  .212444923818D-01  .630877912045D-05  .515369172859D+04
     .547200000000D+06  .355765223503D-06 -.189065508617D+01  .361353158951D-06
     .973460258699D+00  .263375000000D+03  .129591863960D+01 -.794604527039D-08
     .340014162955D-09  .100000000000D+01  .181300000000D+04  .000000000000D+00
     .240000000000D+01  .000000000000D+00 -.605359673500D-08  .400000000000D+02
     .540006000000D+06  .400000000000D+01
27 14 10 11  8  0  0.0  .213109888136D-04  .295585778076D-11  .000000000000D+00
     .102000000000D+03  .174375000000D+02  .446125725784D-08 -.400386973679D+00
     .782310962677D-06  .152567820624D-02  .101495534182D-04  .515367977333D+04
     .547200000000D+06  .316649675369D-07  .114881084376D+01  .614672899246D-07
     .964621553434D+00  .185250000000D+03  .337564348636D+00 -.796961768085D-08
     .457161899771D-09  .100000000000D+01  .181300000000D+04  .000000000000D+00
     .340000000000D+01  .000000000000D+00  .186264514923D-08  .102000000000D+03
     .540006000000D+06  .400000000000D+01
28 14 10 11  8  0  0.0  .390470493585D-03  .272848410532D-11  .000000000000D+00
     .850000000000D+02 -.866562500000D+02  .394087843912D-08  .554944899271D+00
    -.450015068054D-05  .194007667014D-01  .102669000626D-04  .515368467712D+04
     .547200000000D+06 -.234693288803D-06  .171265599911D+00 -.614672899246D-07
     .987988711730D+00  .204531250000D+03 -.170673829506D+01 -.807819363205D-08
    -.255010622216D-09  .100000000000D+01  .181300000000D+04  .000000000000D+00
     .240000000000D+01  .000000000000D+00 -.107102096081D-07  .850000000000D+02
     .540006000000D+06  .400000000000D+01
29 14 10 11  8  0  0.0  .565973110497D-03  .238742359215D-11  .000000000000D+00
     .260000000000D+02  .293125000000D+02  .434018078595D-08  .242581308069D+01
     .143423676491D-05  .113016867545D-02  .932253897190D-05  .515362144279D+04
     .547200000000D+06 -.670552253723D-07  .120438134355D+01  .260770320892D-07
     .970553134725D+00  .204218750000D+03 -.800565219669D+00 -.785461289044D-08
     .444661379074D-09  .100000000000D+01  .181300000000D+04  .000000000000D+00
     .240000000000D+01  .000000000000D+00 -.977888703346D-08  .260000000000D+02
     .540006000000D+06  .400000000000D+01
30 14 10 11  8  0  0.0 -.712522305548D-04 -.363797880709D-11  .000000000000D+00
     .940000000000D+02 -.264375000000D+02  .502413784694D-08  .305577217807D+01
    -.128895044327D-05  .104798865505D-02  .206008553505D-05  .515365056229D+04
     .547200000000D+06 -.260770320892D-07 -.865026465104D+00  .428408384323D-07
     .957839631991D+00  .340625000000D+03 -.310328385422D+01 -.856357099282D-08
    -.660741808263D-10  .100000000000D+01  .181300000000D+04  .000000000000D+00
     .340000000000D+01  .000000000000D+00  .325962901115D-08  .940000000000D+02
     .540006000000D+06  .400000000000D+01
31 14 10 11  8  0  0.0  .330675859004D-03 -.454747350886D-12  .000000000000D+00
     .820000000000D+02 -.300625000000D+02  .459269130403D-08 -.307095933483D+01
    -.135414302349D-05  .809869123623D-02  .172294676304D-05  .515364110565D+04
     .547200000000D+06 -.126659870148D-06 -.910836464703D+00  .949949026108D-07
     .977083157767D+00  .355031250000D+03 -.630190885043D+00 -.828213069827D-08
    -.510735559900D-10  .100000000000D+01  .181300000000D+04  .000000000000D+00
     .240000000000D+01  .000000000000D+00 -.130385160446D-07  .820000000000D+02
     .540006000000D+06  .400000000000D+01
30 14 10 11  7 59 44.0 -.712517648935D-04 -.363797880709D-11  .000000000000D+00
     .420000000000D+02 -.264375000000D+02  .502413784694D-08  .305344200704D+01
    -.128895044327D-05  .104798527900D-02  .206008553505D-05  .515365056610D+04
     .547184000000D+06 -.260770320892D-07 -.865026327590D+00  .428408384323D-07
     .957839634917D+00  .340625000000D+03 -.310328750274D+01 -.856357099282D-08
    -.664313385605D-10  .100000000000D+01  .181300000000D+04  .000000000000D+00
     .240000000000D+01  .000000000000D+00  .325962901115D-08  .420000000000D+02
     .541596000000D+06  .400000000000D+01
 8 14 10 11  7 59 44.0  .158599577844D-04  .113686837722D-12  .000000000000D+00
     .100000000000D+02 -.426562500000D+02  .411802867528D-08 -.272251458711D+01
    -.225752592087D-05  .146986298496D-01  .262819230556D-05  .515217863083D+04
     .547184000000D+06 -.135973095894D-06 -.815110344115D+00 -.257045030594D-06
     .995669284731D+00  .349718750000D+03 -.270203110953D+01 -.801640534403D-08
    -.103932900651D-09  .100000000000D+01  .181300000000D+04  .000000000000D+00
     .240000000000D+01  .000000000000D+00 -.419095158577D-08  .100000000000D+02
     .541956000000D+06  .400000000000D+01
27 14 10 11  7 59 44.0  .213109888136D-04  .295585778076D-11  .000000000000D+00
     .400000000000D+01  .174375000000D+02  .446090010011D-08 -.402718575439D+00
     .782310962677D-06  .152567983605D-02  .101495534182D-04  .515367977142D+04
     .547184000000D+06  .316649675369D-07  .114881097542D+01  .614672899246D-07
     .964621546119D+00  .185250000000D+03  .337562212775D+00 -.796961768085D-08
     .457161899771D-09  .100000000000D+01  .181300000000D+04  .000000000000D+00
     .240000000000D+01  .000000000000D+00  .186264514923D-08  .400000000000D+01
     .542316000000D+06  .400000000000D+01
16 14 10 11  7 59 44.0 -.188929494470D-03  .261479726760D-11  .000000000000D+00
     .900000000000D+01 -.105156250000D+03  .377980030100D-08  .677525747061D+00
    -.529550015926D-05  .767922622617D-02  .104419887066D-04  .515368023109D+04
     .547184000000D+06  .707805156708D-07  .165644958932D+00  .987201929092D-07
     .989431564425D+00  .190031250000D+03  .234993284094D+00 -.775460872487D-08
    -.279297348141D-09  .100000000000D+01  .181300000000D+04  .000000000000D+00
     .240000000000D+01  .000000000000D+00 -.102445483208D-07  .900000000000D+01
     .544356000000D+06  .400000000000D+01
19 14 10 11  7 59 44.0 -.482925213873D-03 -.181898940355D-11  .000000000000D+00
     .260000000000D+02  .217187500000D+02  .443054169270D-08 -.108857749155D+01
     .113807618618D-05  .106414835900D-01  .911951065063D-05  .515365583801D+04
     .547184000000D+06  .281259417534D-06  .124558752825D+01 -.242143869400D-07
     .966845877949D+00  .206843750000D+03  .507816282369D+00 -.794175937758D-08
     .502520932014D-09  .100000000000D+01  .181300000000D+04  .000000000000D+00
     .240000000000D+01  .000000000000D+00 -.149011611938D-07  .260000000000D+02
     .546576000000D+06  .400000000000D+01
 8 14 10 11  9 59 44.0  .158613547683D-04  .113686837722D-12  .000000000000D+00
     .240000000000D+02 -.461562500000D+02  .408802742561D-08 -.167142943157D+01
    -.249780714512D-05  .146989631467D-01  .227615237236D-05  .515217808723D+04
     .554384000000D+06  .875443220139D-07 -.815169311417D+00 -.149011611938D-06
     .995669113569D+00  .350343750000D+03 -.270202286452D+01 -.808926552181D-08
     .617882880159D-10  .100000000000D+01  .181300000000D+04  .000000000000D+00
     .240000000000D+01  .000000000000D+00 -.419095158577D-08  .240000000000D+02
     .547206000000D+06  .400000000000D+01
